STARLINK-5287           
1 55293U 23010AA  26066.91271862  .00299879  00000+0  22781-1 0  9990
2 55293  70.0019  28.9133 0012340 247.6439 112.3413 15.00435029173009
LEMUR-2-LLOYD           
1 60577U 24149DP  26068.46001441  .00012007  00000+0  80143-3 0  9995
2 60577  97.6780 149.6779 0005186 125.6096 234.5616 15.07168338 85367
